{"type": "FeatureCollection", "features": [ {"type": "Feature", "properties": {"norad_id": 43262, "name": "GAOFEN-1 04", "group": "resource", "lat": 30.982648663935542, "lon": 40.507418975030156, "alt_km": 638.1854125326254, "timestamp": "2025-12-13T13:34:34.732330+00:00", "meta": {"OBJECT_NAME": "GAOFEN-1 04", "OBJECT_ID": "2018-031D", "EPOCH": "2025-12-13T00:25:22.457856", "MEAN_MOTION": 14.76452636, "ECCENTRICITY": 0.00010726, "INCLINATION": 98.0804, "RA_OF_ASC_NODE": 44.8527, "ARG_OF_PERICENTER": 58.2836, "MEAN_ANOMALY": 301.8478, "EPHEMERIS_TYPE": 0, "CLASSIFICATION_TYPE": "U", "NORAD_CAT_ID": 43262, "ELEMENT_SET_NO": 999, "REV_AT_EPOCH": 41521, "BSTAR": 0.00028554478, "MEAN_MOTION_DOT": 1.935e-05, "MEAN_MOTION_DDOT": 0}, "tle": {"line1": "1 43262U 18031D   25347.01762104  .00001935  00000+0  28554-3 0  9996", "line2": "2 43262  98.0804  44.8527 0001072  58.2836 301.8478 14.76452636415218"}}, "geometry": {"type": "Point", "coordinates": [40.507418975030156, 30.982648663935542]}}, {"type": "Feature", "properties": {"norad_id": 43437, "name": "SENTINEL-3B", "group": "resource", "lat": 49.60681407217319, "lon": 42.460334411163785, "alt_km": 797.3532048030393, "timestamp": "2025-12-13T13:34:34.732339+00:00", "meta": {"OBJECT_NAME": "SENTINEL-3B", "OBJECT_ID": "2018-039A", "EPOCH": "2025-12-12T18:49:36.045408", "MEAN_MOTION": 14.26734123, "ECCENTRICITY": 0.0001597, "INCLINATION": 98.6269, "RA_OF_ASC_NODE": 51.9683, "ARG_OF_PERICENTER": 100.8249, "MEAN_ANOMALY": 259.3112, "EPHEMERIS_TYPE": 0, "CLASSIFICATION_TYPE": "U", "NORAD_CAT_ID": 43437, "ELEMENT_SET_NO": 999, "REV_AT_EPOCH": 39754, "BSTAR": 0.00011568823, "MEAN_MOTION_DOT": 2.36e-06, "MEAN_MOTION_DDOT": 0}, "tle": {"line1": "1 43437U 18039A   25346.78444497  .00000236  00000+0  11569-3 0  9994", "line2": "2 43437  98.6269  51.9683 0001597 100.8249 259.3112 14.26734123397545"}}, "geometry": {"type": "Point", "coordinates": [42.460334411163785, 49.60681407217319]}}, {"type": "Feature", "properties": {"norad_id": 43461, "name": "GAOFEN-5 01", "group": "resource", "lat": 39.84052243693414, "lon": 137.65729133660756, "alt_km": 689.390403997756, "timestamp": "2025-12-13T13:34:34.732348+00:00", "meta": {"OBJECT_NAME": "GAOFEN-5 01", "OBJECT_ID": "2018-043A", "EPOCH": "2025-12-12T22:08:25.329696", "MEAN_MOTION": 14.60410348, "ECCENTRICITY": 9.449e-05, "INCLINATION": 98.4326, "RA_OF_ASC_NODE": 309.8929, "ARG_OF_PERICENTER": 339.5277, "MEAN_ANOMALY": 20.5885, "EPHEMERIS_TYPE": 0, "CLASSIFICATION_TYPE": "U", "NORAD_CAT_ID": 43461, "ELEMENT_SET_NO": 999, "REV_AT_EPOCH": 40450, "BSTAR": 0.00016796304, "MEAN_MOTION_DOT": 7.64e-06, "MEAN_MOTION_DDOT": 0}, "tle": {"line1": "1 43461U 18043A   25346.92251539  .00000764  00000+0  16796-3 0  9998", "line2": "2 43461  98.4326 309.8929 0000944 339.5277  20.5885 14.60410348404507"}}, "geometry": {"type": "Point", "coordinates": [137.65729133660756, 39.84052243693414]}}, {"type": "Feature", "properties": {"norad_id": 43484, "name": "GAOFEN-6", "group": "resource", "lat": -3.1491834747834373, "lon": -128.628149018465, "alt_km": 648.4693258767184, "timestamp": "2025-12-13T13:34:34.732357+00:00", "meta": {"OBJECT_NAME": "GAOFEN-6", "OBJECT_ID": "2018-048A", "EPOCH": "2025-12-13T01:21:58.955040", "MEAN_MOTION": 14.76566449, "ECCENTRICITY": 0.00132037, "INCLINATION": 97.8028, "RA_OF_ASC_NODE": 51.3125, "ARG_OF_PERICENTER": 62.9512, "MEAN_ANOMALY": 297.3044, "EPHEMERIS_TYPE": 0, "CLASSIFICATION_TYPE": "U", "NORAD_CAT_ID": 43484, "ELEMENT_SET_NO": 999, "REV_AT_EPOCH": 40592, "BSTAR": 0.00015687439, "MEAN_MOTION_DOT": 1.046e-05, "MEAN_MOTION_DDOT": 0}, "tle": {"line1": "1 43484U 18048A   25347.05693235  .00001046  00000+0  15687-3 0  9998", "line2": "2 43484  97.8028  51.3125 0013203  62.9512 297.3044 14.76566449405921"}}, "geometry": {"type": "Point", "coordinates": [-128.628149018465, -3.1491834747834373]}}, {"type": "Feature", "properties": {"norad_id": 43585, "name": "GAOFEN-11 01", "group": "resource", "lat": -25.06251156087861, "lon": -132.87577530029876, "alt_km": 425.407876984993, "timestamp": "2025-12-13T13:34:34.732366+00:00", "meta": {"OBJECT_NAME": "GAOFEN-11 01", "OBJECT_ID": "2018-063A", "EPOCH": "2025-12-13T00:17:30.407136", "MEAN_MOTION": 15.49230549, "ECCENTRICITY": 0.00042665, "INCLINATION": 97.1559, "RA_OF_ASC_NODE": 49.9435, "ARG_OF_PERICENTER": 312.9432, "MEAN_ANOMALY": 47.1461, "EPHEMERIS_TYPE": 0, "CLASSIFICATION_TYPE": "U", "NORAD_CAT_ID": 43585, "ELEMENT_SET_NO": 999, "REV_AT_EPOCH": 41146, "BSTAR": 0.00044738394, "MEAN_MOTION_DOT": 0.00024361, "MEAN_MOTION_DDOT": 0}, "tle": {"line1": "1 43585U 18063A   25347.01215749  .00024361  00000+0  44738-3 0  9997", "line2": "2 43585  97.1559  49.9435 0004266 312.9432  47.1461 15.49230549411460"}}, "geometry": {"type": "Point", "coordinates": [-132.87577530029876, -25.06251156087861]}}, {"type": "Feature", "properties": {"norad_id": 43613, "name": "ICESAT-2", "group": "resource", "lat": -59.08943955220027, "lon": 57.606727113842624, "alt_km": 488.5759303208397, "timestamp": "2025-12-13T13:34:34.732375+00:00", "meta": {"OBJECT_NAME": "ICESAT-2", "OBJECT_ID": "2018-070A", "EPOCH": "2025-12-12T23:57:40.605696", "MEAN_MOTION": 15.28245993, "ECCENTRICITY": 0.00022929, "INCLINATION": 92.0043, "RA_OF_ASC_NODE": 240.8069, "ARG_OF_PERICENTER": 139.7557, "MEAN_ANOMALY": 220.3863, "EPHEMERIS_TYPE": 0, "CLASSIFICATION_TYPE": "U", "NORAD_CAT_ID": 43613, "ELEMENT_SET_NO": 999, "REV_AT_EPOCH": 40402, "BSTAR": 0.00057911937, "MEAN_MOTION_DOT": 0.00015943, "MEAN_MOTION_DDOT": 0}, "tle": {"line1": "1 43613U 18070A   25346.99838664  .00015943  00000+0  57912-3 0  9994", "line2": "2 43613  92.0043 240.8069 0002292 139.7557 220.3863 15.28245993404020"}}, "geometry": {"type": "Point", "coordinates": [57.606727113842624, -59.08943955220027]}}, {"type": "Feature", "properties": {"norad_id": 43719, "name": "HYSIS", "group": "resource", "lat": -43.979036483451054, "lon": -137.27045931481598, "alt_km": 641.2025508507204, "timestamp": "2025-12-13T13:34:34.732384+00:00", "meta": {"OBJECT_NAME": "HYSIS", "OBJECT_ID": "2018-096A", "EPOCH": "2025-12-13T01:11:44.860992", "MEAN_MOTION": 14.78645938, "ECCENTRICITY": 0.00013202, "INCLINATION": 98.0095, "RA_OF_ASC_NODE": 50.0254, "ARG_OF_PERICENTER": 58.176, "MEAN_ANOMALY": 301.958, "EPHEMERIS_TYPE": 0, "CLASSIFICATION_TYPE": "U", "NORAD_CAT_ID": 43719, "ELEMENT_SET_NO": 999, "REV_AT_EPOCH": 37991, "BSTAR": 0.0002386576, "MEAN_MOTION_DOT": 1.696e-05, "MEAN_MOTION_DDOT": 0}, "tle": {"line1": "1 43719U 18096A   25347.04982478  .00001696  00000+0  23866-3 0  9990", "line2": "2 43719  98.0095  50.0254 0001320  58.1760 301.9580 14.78645938379916"}}, "geometry": {"type": "Point", "coordinates": [-137.27045931481598, -43.979036483451054]}}, {"type": "Feature", "properties": {"norad_id": 43783, "name": "KAZSTSAT", "group": "resource", "lat": 17.68472055286446, "lon": -154.8912865001085, "alt_km": 573.3488324160708, "timestamp": "2025-12-13T13:34:34.732393+00:00", "meta": {"OBJECT_NAME": "KAZSTSAT", "OBJECT_ID": "2018-099AB", "EPOCH": "2025-12-13T00:02:31.659648", "MEAN_MOTION": 14.9935426, "ECCENTRICITY": 0.00059098, "INCLINATION": 97.4559, "RA_OF_ASC_NODE": 22.1758, "ARG_OF_PERICENTER": 329.1628, "MEAN_ANOMALY": 30.9248, "EPHEMERIS_TYPE": 0, "CLASSIFICATION_TYPE": "U", "NORAD_CAT_ID": 43783, "ELEMENT_SET_NO": 999, "REV_AT_EPOCH": 38340, "BSTAR": 0.00017483859, "MEAN_MOTION_DOT": 2.082e-05, "MEAN_MOTION_DDOT": 0}, "tle": {"line1": "1 43783U 18099AB  25347.00175532  .00002082  00000+0  17484-3 0  9994", "line2": "2 43783  97.4559  22.1758 0005909 329.1628  30.9248 14.99354260383402"}}, "geometry": {"type": "Point", "coordinates": [-154.8912865001085, 17.68472055286446]}}, {"type": "Feature", "properties": {"norad_id": 43831, "name": "SAUDISAT 5A", "group": "resource", "lat": -66.16238749209008, "lon": 64.69222245633236, "alt_km": 502.2679609421248, "timestamp": "2025-12-13T13:34:34.732402+00:00", "meta": {"OBJECT_NAME": "SAUDISAT 5A", "OBJECT_ID": "2018-102A", "EPOCH": "2025-12-12T23:42:14.623200", "MEAN_MOTION": 15.25662418, "ECCENTRICITY": 0.00117492, "INCLINATION": 97.3355, "RA_OF_ASC_NODE": 47.1738, "ARG_OF_PERICENTER": 75.5021, "MEAN_ANOMALY": 284.752, "EPHEMERIS_TYPE": 0, "CLASSIFICATION_TYPE": "U", "NORAD_CAT_ID": 43831, "ELEMENT_SET_NO": 999, "REV_AT_EPOCH": 38726, "BSTAR": 0.0003872994, "MEAN_MOTION_DOT": 9.809e-05, "MEAN_MOTION_DDOT": 0}, "tle": {"line1": "1 43831U 18102A   25346.98766925  .00009809  00000+0  38730-3 0  9992", "line2": "2 43831  97.3355  47.1738 0011749  75.5021 284.7520 15.25662418387269"}}, "geometry": {"type": "Point", "coordinates": [64.69222245633236, -66.16238749209008]}}, {"type": "Feature", "properties": {"norad_id": 43833, "name": "SAUDISAT 5B", "group": "resource", "lat": -13.97900358702585, "lon": 52.32075808806149, "alt_km": 492.3791468241907, "timestamp": "2025-12-13T13:34:34.732411+00:00", "meta": {"OBJECT_NAME": "SAUDISAT 5B", "OBJECT_ID": "2018-102C", "EPOCH": "2025-12-12T23:28:27.662880", "MEAN_MOTION": 15.26014556, "ECCENTRICITY": 0.00124691, "INCLINATION": 97.3449, "RA_OF_ASC_NODE": 49.9033, "ARG_OF_PERICENTER": 77.8405, "MEAN_ANOMALY": 282.423, "EPHEMERIS_TYPE": 0, "CLASSIFICATION_TYPE": "U", "NORAD_CAT_ID": 43833, "ELEMENT_SET_NO": 999, "REV_AT_EPOCH": 38737, "BSTAR": 0.00035825247, "MEAN_MOTION_DOT": 9.166e-05, "MEAN_MOTION_DDOT": 0}, "tle": {"line1": "1 43833U 18102C   25346.97809795  .00009166  00000+0  35825-3 0  9994", "line2": "2 43833  97.3449  49.9033 0012469  77.8405 282.4230 15.26014556387374"}}, "geometry": {"type": "Point", "coordinates": [52.32075808806149, -13.97900358702585]}}]}